[{"OBJECT_NAME":"STARLINK-1962","OBJECT_ID":"2021-009R","EPOCH":"2026-03-09T22:00:01.999584","MEAN_MOTION":15.62051147,"ECCENTRICITY":0.0008374,"INCLINATION":53.0458,"RA_OF_ASC_NODE":355.4518,"ARG_OF_PERICENTER":84.9109,"MEAN_ANOMALY":208.5785,"EPHEMERIS_TYPE":0,"CLASSIFICATION_TYPE":"U","NORAD_CAT_ID":47563,"ELEMENT_SET_NO":999,"REV_AT_EPOCH":592,"BSTAR":0.0016301581,"MEAN_MOTION_DOT":0.00147576,"MEAN_MOTION_DDOT":0},{"OBJECT_NAME":"PSLV R\/B","OBJECT_ID":"2022-013D","EPOCH":"2026-03-09T16:30:06.230304","MEAN_MOTION":15.6423675,"ECCENTRICITY":0.00125272,"INCLINATION":97.4518,"RA_OF_ASC_NODE":121.4885,"ARG_OF_PERICENTER":118.9618,"MEAN_ANOMALY":241.2898,"EPHEMERIS_TYPE":0,"CLASSIFICATION_TYPE":"U","NORAD_CAT_ID":51659,"ELEMENT_SET_NO":999,"REV_AT_EPOCH":22709,"BSTAR":0.00053235424,"MEAN_MOTION_DOT":0.00050953,"MEAN_MOTION_DDOT":0}]
